[
    {
        "Altitude(m)": 605459.0253972298,
        "Argument of Periapsis(deg)": 0.0,
        "Eccentricity": 0.0,
        "Inclination(deg)": 60.0,
        "Latitude(deg)": 27.988202960032414,
        "Longitude(deg)": -157.20136407581566,
        "Mean Anomaly(deg)": 32.72730000000001,
        "RAAN(deg)": 285.0,
        "Satellite Name": "Test1 1256",
        "Satellite Number": 1256,
        "Semi-Major Axis(m)": 6980739.136638005,
        "Time(s)": 0
    },
    {
        "Altitude(m)": 605535.8161871505,
        "Argument of Periapsis(deg)": 0.00010418945913296404,
        "Eccentricity": 0.0,
        "Inclination(deg)": 60.0,
        "Latitude(deg)": 28.50133186500091,
        "Longitude(deg)": -156.84441792558573,
        "Mean Anomaly(deg)": 33.34740614546182,
        "RAAN(deg)": 284.9995799508602,
        "Satellite Name": "Test1 1256",
        "Satellite Number": 1256,
        "Semi-Major Axis(m)": 6980739.136638005,
        "Time(s)": 10
    },
    {
        "Altitude(m)": 605614.2975898044,
        "Argument of Periapsis(deg)": 0.0002083789182659281,
        "Eccentricity": 0.0,
        "Inclination(deg)": 60.0,
        "Latitude(deg)": 29.01324323965508,
        "Longitude(deg)": -156.48360693210054,
        "Mean Anomaly(deg)": 33.967512290923665,
        "RAAN(deg)": 284.9991599017205,
        "Satellite Name": "Test1 1256",
        "Satellite Number": 1256,
        "Semi-Major Axis(m)": 6980739.136638005,
        "Time(s)": 20
    },
    {
        "Altitude(m)": 605694.4119131422,
        "Argument of Periapsis(deg)": 0.00031256837739889213,
        "Eccentricity": 0.0,
        "Inclination(deg)": 60.0,
        "Latitude(deg)": 29.52389981090501,
        "Longitude(deg)": -156.11881933941032,
        "Mean Anomaly(deg)": 34.58761843638547,
        "RAAN(deg)": 284.9987398525808,
        "Satellite Name": "Test1 1256",
        "Satellite Number": 1256,
        "Semi-Major Axis(m)": 6980739.136638005,
        "Time(s)": 30
    },
    {
        "Altitude(m)": 605776.1008557583,
        "Argument of Periapsis(deg)": 0.0004167578365318562,
        "Eccentricity": 0.0,
        "Inclination(deg)": 60.0,
        "Latitude(deg)": 30.033263309184754,
        "Longitude(deg)": -155.7499403852713,
        "Mean Anomaly(deg)": 35.20772458184732,
        "RAAN(deg)": 284.998319803441,
        "Satellite Name": "Test1 1256",
        "Satellite Number": 1256,
        "Semi-Major Axis(m)": 6980739.136638005,
        "Time(s)": 40
    },
    {
        "Altitude(m)": 605859.3055372469,
        "Argument of Periapsis(deg)": 0.0005209472956648203,
        "Eccentricity": 0.0,
        "Inclination(deg)": 60.0,
        "Latitude(deg)": 30.541294429719102,
        "Longitude(deg)": -155.37685324233,
        "Mean Anomaly(deg)": 35.82783072730918,
        "RAAN(deg)": 284.9978997543013,
        "Satellite Name": "Test1 1256",
        "Satellite Number": 1256,
        "Semi-Major Axis(m)": 6980739.136638005,
        "Time(s)": 50
    },
    {
        "Altitude(m)": 605943.9665287797,
        "Argument of Periapsis(deg)": 0.0006251367547977843,
        "Eccentricity": 0.0,
        "Inclination(deg)": 60.0,
        "Latitude(deg)": 31.04795279243066,
        "Longitude(deg)": -154.99943844626148,
        "Mean Anomaly(deg)": 36.447936872770974,
        "RAAN(deg)": 284.99747970516154,
        "Satellite Name": "Test1 1256",
        "Satellite Number": 1256,
        "Semi-Major Axis(m)": 6980739.136638005,
        "Time(s)": 60
    },
    {
        "Altitude(m)": 606030.0238839074,
        "Argument of Periapsis(deg)": 0.0007293262139307483,
        "Eccentricity": 0.0,
        "Inclination(deg)": 60.0,
        "Latitude(deg)": 31.553196900448157,
        "Longitude(deg)": -154.6175733238951,
        "Mean Anomaly(deg)": 37.06804301823283,
        "RAAN(deg)": 284.9970596560218,
        "Satellite Name": "Test1 1256",
        "Satellite Number": 1256,
        "Semi-Major Axis(m)": 6980739.136638005,
        "Time(s)": 70
    },
    {
        "Altitude(m)": 606117.4171695635,
        "Argument of Periapsis(deg)": 0.0008335156730637124,
        "Eccentricity": 0.0,
        "Inclination(deg)": 60.0,
        "Latitude(deg)": 32.05698409717855,
        "Longitude(deg)": -154.23113293438686,
        "Mean Anomaly(deg)": 37.68814916369463,
        "RAAN(deg)": 284.99663960688207,
        "Satellite Name": "Test1 1256",
        "Satellite Number": 1256,
        "Semi-Major Axis(m)": 6980739.136638005,
        "Time(s)": 80
    },
    {
        "Altitude(m)": 606206.0854972636,
        "Argument of Periapsis(deg)": 0.0009377051321966765,
        "Eccentricity": 0.0,
        "Inclination(deg)": 60.0,
        "Latitude(deg)": 32.559270521898945,
        "Longitude(deg)": -153.83998949790006,
        "Mean Anomaly(deg)": 38.308255309156486,
        "RAAN(deg)": 284.9962195577423,
        "Satellite Name": "Test1 1256",
        "Satellite Number": 1256,
        "Semi-Major Axis(m)": 6980739.136638005,
        "Time(s)": 90
    },
    {
        "Altitude(m)": 606295.9675544548,
        "Argument of Periapsis(deg)": 0.0010418945913296407,
        "Eccentricity": 0.0,
        "Inclination(deg)": 60.0,
        "Latitude(deg)": 33.0600110638313,
        "Longitude(deg)": -153.44401182490031,
        "Mean Anomaly(deg)": 38.92836145461828,
        "RAAN(deg)": 284.99579950860254,
        "Satellite Name": "Test1 1256",
        "Satellite Number": 1256,
        "Semi-Major Axis(m)": 6980739.136638005,
        "Time(s)": 100
    },
    {
        "Altitude(m)": 606387.0016360342,
        "Argument of Periapsis(deg)": 0.0011460840504626045,
        "Eccentricity": 0.0,
        "Inclination(deg)": 60.0,
        "Latitude(deg)": 33.55915931466666,
        "Longitude(deg)": -153.0430662592004,
        "Mean Anomaly(deg)": 39.54846760008014,
        "RAAN(deg)": 284.99537945946287,
        "Satellite Name": "Test1 1256",
        "Satellite Number": 1256,
        "Semi-Major Axis(m)": 6980739.136638005,
        "Time(s)": 110
    },
    {
        "Altitude(m)": 606479.1256760209,
        "Argument of Periapsis(deg)": 0.0012502735095955685,
        "Eccentricity": 0.0,
        "Inclination(deg)": 60.0,
        "Latitude(deg)": 34.05666751949657,
        "Longitude(deg)": -152.6370161093017,
        "Mean Anomaly(deg)": 40.16857374554194,
        "RAAN(deg)": 284.9949594103231,
        "Satellite Name": "Test1 1256",
        "Satellite Number": 1256,
        "Semi-Major Axis(m)": 6980739.136638005,
        "Time(s)": 120
    },
    {
        "Altitude(m)": 606572.277279308,
        "Argument of Periapsis(deg)": 0.0013544629687285324,
        "Eccentricity": 0.0,
        "Inclination(deg)": 60.0,
        "Latitude(deg)": 34.552486526122344,
        "Longitude(deg)": -152.22572108122876,
        "Mean Anomaly(deg)": 40.788679891003795,
        "RAAN(deg)": 284.99453936118334,
        "Satellite Name": "Test1 1256",
        "Satellite Number": 1256,
        "Semi-Major Axis(m)": 6980739.136638005,
        "Time(s)": 130
    },
    {
        "Altitude(m)": 606666.3937535667,
        "Argument of Periapsis(deg)": 0.0014586524278614966,
        "Eccentricity": 0.0,
        "Inclination(deg)": 60.0,
        "Latitude(deg)": 35.046565732712075,
        "Longitude(deg)": -151.80903822609469,
        "Mean Anomaly(deg)": 41.40878603646564,
        "RAAN(deg)": 284.99411931204355,
        "Satellite Name": "Test1 1256",
        "Satellite Number": 1256,
        "Semi-Major Axis(m)": 6980739.136638005,
        "Time(s)": 140
    },
    {
        "Altitude(m)": 606761.4121412159,
        "Argument of Periapsis(deg)": 0.0015628418869944607,
        "Eccentricity": 0.0,
        "Inclination(deg)": 60.0,
        "Latitude(deg)": 35.53885303377347,
        "Longitude(deg)": -151.38682137705058,
        "Mean Anomaly(deg)": 42.02889218192745,
        "RAAN(deg)": 284.9936992629039,
        "Satellite Name": "Test1 1256",
        "Satellite Number": 1256,
        "Semi-Major Axis(m)": 6980739.136638005,
        "Time(s)": 150
    },
    {
        "Altitude(m)": 606857.2692514737,
        "Argument of Periapsis(deg)": 0.0016670313461274247,
        "Eccentricity": 0.0,
        "Inclination(deg)": 60.0,
        "Latitude(deg)": 36.02929476442019,
        "Longitude(deg)": -150.9589205889373,
        "Mean Anomaly(deg)": 42.6489983273893,
        "RAAN(deg)": 284.99327921376414,
        "Satellite Name": "Test1 1256",
        "Satellite Number": 1256,
        "Semi-Major Axis(m)": 6980739.136638005,
        "Time(s)": 160
    },
    {
        "Altitude(m)": 606953.9016924778,
        "Argument of Periapsis(deg)": 0.0017712208052603888,
        "Eccentricity": 0.0,
        "Inclination(deg)": 60.0,
        "Latitude(deg)": 36.517835642913646,
        "Longitude(deg)": -150.52518309400148,
        "Mean Anomaly(deg)": 43.269104472851105,
        "RAAN(deg)": 284.99285916462435,
        "Satellite Name": "Test1 1256",
        "Satellite Number": 1256,
        "Semi-Major Axis(m)": 6980739.136638005,
        "Time(s)": 170
    },
    {
        "Altitude(m)": 607051.245903427,
        "Argument of Periapsis(deg)": 0.001875410264393353,
        "Eccentricity": 0.0,
        "Inclination(deg)": 60.0,
        "Latitude(deg)": 37.004418711460886,
        "Longitude(deg)": -150.08545274847125,
        "Mean Anomaly(deg)": 43.88921061831296,
        "RAAN(deg)": 284.9924391154846,
        "Satellite Name": "Test1 1256",
        "Satellite Number": 1256,
        "Semi-Major Axis(m)": 6980739.136638005,
        "Time(s)": 180
    },
    {
        "Altitude(m)": 607149.2381867749,
        "Argument of Periapsis(deg)": 0.0019795997235263173,
        "Eccentricity": 0.0,
        "Inclination(deg)": 60.0,
        "Latitude(deg)": 37.4889852752605,
        "Longitude(deg)": -149.6395694834589,
        "Mean Anomaly(deg)": 44.50931676377476,
        "RAAN(deg)": 284.99201906634494,
        "Satellite Name": "Test1 1256",
        "Satellite Number": 1256,
        "Semi-Major Axis(m)": 6980739.136638005,
        "Time(s)": 190
    }
]